{
  "type": "FeatureCollection",
  "features": [
    {
      "type": "Feature",
      "properties": {
        "norad_id": 54741,
        "name": "GALAXY 35 (G-35)",
        "group": "intelsat",
        "lat": -0.02179931399732194,
        "lon": -111.6830226353801,
        "alt_km": 35777.642009539435,
        "timestamp": "2025-12-20T16:47:35.959247+00:00",
        "meta_object_name": "GALAXY 35 (G-35)",
        "meta_object_id": "2022-170A",
        "meta_epoch": "2025-12-20T11:17:55.670208",
        "meta_mean_motion": 1.00272221,
        "meta_eccentricity": 0.000215,
        "meta_inclination": 0.0149,
        "meta_ra_of_asc_node": 49.7326,
        "meta_arg_of_pericenter": 222.5076,
        "meta_mean_anomaly": 253.4523,
        "meta_ephemeris_type": 0,
        "meta_classification_type": "U",
        "meta_norad_cat_id": 54741,
        "meta_element_set_no": 999,
        "meta_rev_at_epoch": 1110,
        "meta_bstar": 0,
        "meta_mean_motion_dot": -1.39e-06,
        "meta_mean_motion_ddot": 0,
        "tle_line1": "1 54741U 22170A   25354.47078322 -.00000139  00000+0  00000+0 0  9997",
        "tle_line2": "2 54741   0.0149  49.7326 0002150 222.5076 253.4523  1.00272221 11104"
      },
      "geometry": {
        "type": "Point",
        "coordinates": [
          -111.6830226353801,
          -0.02179931399732194
        ]
      }
    },
    {
      "type": "Feature",
      "properties": {
        "norad_id": 54742,
        "name": "GALAXY 36 (G-36)",
        "group": "intelsat",
        "lat": -0.03740870679782202,
        "lon": -107.59237388457089,
        "alt_km": 35787.04935583627,
        "timestamp": "2025-12-20T16:47:35.959258+00:00",
        "meta_object_name": "GALAXY 36 (G-36)",
        "meta_object_id": "2022-170B",
        "meta_epoch": "2025-12-20T05:57:27.899712",
        "meta_mean_motion": 1.00269554,
        "meta_eccentricity": 4.24e-05,
        "meta_inclination": 0.0144,
        "meta_ra_of_asc_node": 13.7124,
        "meta_arg_of_pericenter": 338.7619,
        "meta_mean_anomaly": 96.9725,
        "meta_ephemeris_type": 0,
        "meta_classification_type": "U",
        "meta_norad_cat_id": 54742,
        "meta_element_set_no": 999,
        "meta_rev_at_epoch": 1098,
        "meta_bstar": 0,
        "meta_mean_motion_dot": 0,
        "meta_mean_motion_ddot": 0,
        "tle_line1": "1 54742U 22170B   25354.24823958  .00000000  00000+0  00000+0 0  9992",
        "tle_line2": "2 54742   0.0144  13.7124 0000424 338.7619  96.9725  1.00269554 10986"
      },
      "geometry": {
        "type": "Point",
        "coordinates": [
          -107.59237388457089,
          -0.03740870679782202
        ]
      }
    },
    {
      "type": "Feature",
      "properties": {
        "norad_id": 57493,
        "name": "GALAXY 37 (G-37)",
        "group": "intelsat",
        "lat": -0.02684711055038179,
        "lon": -145.60320215592083,
        "alt_km": 35781.92757660229,
        "timestamp": "2025-12-20T16:47:35.959270+00:00",
        "meta_object_name": "GALAXY 37 (G-37)",
        "meta_object_id": "2023-112A",
        "meta_epoch": "2025-12-20T09:17:38.654880",
        "meta_mean_motion": 1.0027088,
        "meta_eccentricity": 0.0001926,
        "meta_inclination": 0.0163,
        "meta_ra_of_asc_node": 356.4838,
        "meta_arg_of_pericenter": 275.4186,
        "meta_mean_anomaly": 189.7268,
        "meta_ephemeris_type": 0,
        "meta_classification_type": "U",
        "meta_norad_cat_id": 57493,
        "meta_element_set_no": 999,
        "meta_rev_at_epoch": 875,
        "meta_bstar": 0,
        "meta_mean_motion_dot": 7.2e-07,
        "meta_mean_motion_ddot": 0,
        "tle_line1": "1 57493U 23112A   25354.38725295  .00000072  00000+0  00000+0 0  9994",
        "tle_line2": "2 57493   0.0163 356.4838 0001926 275.4186 189.7268  1.00270880  8755"
      },
      "geometry": {
        "type": "Point",
        "coordinates": [
          -145.60320215592083,
          -0.02684711055038179
        ]
      }
    }
  ]
}